#aV2011  8 28  0  0   .00000000      96 DD+AD WGS84 FIT  NGA
## 1651       .00000000   900.00000000 55801  .0000000000000
+   32     1  2  3  4  5  6  7  8  9 10 11 12 13 14 15 16 17
+         18 19 20 21 22 23 24 25 26 27 28 29 30 31 32  0  0
+          0  0  0  0  0  0  0  0  0  0  0  0  0  0  0  0  0
+          0  0  0  0  0  0  0  0  0  0  0  0  0  0  0  0  0
+          0  0  0  0  0  0  0  0  0  0  0  0  0  0  0  0  0
++         0  0  0  0  0  0  0  0  0  0  0  0  0  0  0  0  0
++         0  0  0  0  0  0  0  0  0  0  0  0  0  0  0  0  0
++         0  0  0  0  0  0  0  0  0  0  0  0  0  0  0  0  0
++         0  0  0  0  0  0  0  0  0  0  0  0  0  0  0  0  0
++         0  0  0  0  0  0  0  0  0  0  0  0  0  0  0  0  0
%c cc cc ccc ccc cccc cccc cccc cccc ccccc ccccc ccccc ccccc
%c cc cc ccc ccc cccc cccc cccc cccc ccccc ccccc ccccc ccccc
%f  0.0000000  0.000000000  0.00000000000  0.000000000000000
%f  0.0000000  0.000000000  0.00000000000  0.000000000000000
%i    0    0    0    0      0      0      0      0         0
%i    0    0    0    0      0      0      0      0         0
/*      NGA, ST. LOUIS,MO.                                  
/*   EPHEMERIS COMPUTED FROM  3 DAYS OF DATA                
/* CCCCCCCCCCCCCCCCCCCCCCCCCCCCCCCCCCCCCCCCCCCCCCCCCCCCCCCCC
/* CCCCCCCCCCCCCCCCCCCCCCCCCCCCCCCCCCCCCCCCCCCCCCCCCCCCCCCCC
*  2011  8 28 11 15   .00000000                                                 
P  1 -22413.419745 -12324.980169   7136.257716     -8.662822                    
V  1  -5220.379954  -7891.030038 -29997.202611      -.015359                    
P  2  11309.759665  20997.868358  12257.112658    353.320128                    
V  2 -13401.616704  -7842.449557  25449.550336       .016666                    
P  3  -3583.628293 -16001.227873 -21301.697058    760.735749                    
V  3  23693.428096 -11203.863741   4833.524551       .050516                    
P  4  -4175.682254  16120.219542  20405.183389    214.551692                    
V  4 -20945.527977 -16382.759339   8904.002220       .111405                    
P  5   3022.125352  24207.983925 -10376.911203   -210.255140                    
V  5  -5137.432389  12486.289460  27770.559450      -.053492                    
P  6   2308.047148 -16964.061048 -20106.240915    -84.910217                    
V  6  24519.334222  -8739.321454  10362.260564       .096651                    
P  7 -19215.154020   -208.665285 -18430.400898     24.069161                    
V  7 -16769.439584 -16209.758546  17429.787278       .017429                    
P  8 -13213.154787   6852.622765 -22020.761733      9.019473                    
V  8 -19493.475685 -19935.483480   4932.713057       .000908                    
P  9  21420.727314  15325.702228   2760.047876    102.021334                    
V  9   1864.941252   4308.052766 -32027.821066       .023699                    
P 10  -9260.874984  23933.453935   5799.432026    -11.332339                    
V 10  -1811.291029  -8283.374282  30531.598268      -.011048                    
P 11 -23291.343753 -13039.614560  -2005.820445   -180.864491                    
V 11   4000.567846  -3310.016099 -29718.040272      -.033535                    
P 12  12879.073196   9167.722195  21379.668167     18.721820                    
V 12  -5926.420088  26396.561738  -7583.345145       .024436                    
P 13 -25933.959722   3699.578947   4484.021502    254.261790                    
V 13   5191.660241  -3246.566931  31648.625939      -.018199                    
P 14  17647.954388 -14505.097368  13590.073099    169.362362                    
V 14  16817.677614  -3004.289434 -25508.196350       .019405                    
P 15  17469.549253   7654.131475 -18545.500492   -108.733103                    
V 15 -21507.266480   9702.332671 -16077.640823       .016890                    
P 16  -2898.344434 -23452.502077 -11808.012177   -194.414345                    
V 16   5424.168644 -14251.401535  27238.856840      -.022402                    
P 17 -16633.153173  15380.841168  13813.212930    177.485536                    
V 17 -17265.754493   3092.535180 -24715.123160      -.014267                    
P 18  15646.652251 -11612.213086 -17546.841072    154.504005                    
V 18  -2253.412881  23199.395032 -17409.406250       .018776                    
P 19 -14522.227718 -10520.364381 -19728.659519   -177.747593                    
V 19  23845.512878  -7239.310469 -13348.574532      -.040767                    
P 20 -14705.346166  -6795.865138  20912.195955     52.242138                    
V 20   4529.618177 -26614.190467  -5362.844790       .004553                    
P 21  18070.474022  -2982.144676 -18998.696193   -167.657201                    
V 21  17896.806119  17459.741896  13367.924704      -.025310                    
P 22  10756.341166 -22818.475179  -7945.817251    144.968340                    
V 22   1487.215219  10935.678360 -28849.375802      -.002609                    
P 23 -23179.568781  -1824.740083  13184.843140    280.548044                    
V 23  15077.648991  -7134.257795  25195.387391      -.030164                    
P 24 -21616.297354 -14422.879525   6275.429715    419.130578                    
V 24  -3737.750134  -7460.775678 -29932.714044       .032686                    
P 25  15559.637994  -4299.249948  21057.398936     16.070775                    
V 25  -3885.445515  26525.018759   8301.582567       .017819                    
P 26   5461.456674  13965.757108 -22533.393460   -138.290414                    
V 26 -26193.145928   6882.044506  -1759.207222      -.125254                    
P 27  20329.639874  17257.036343  -1564.325755    299.430081                    
V 27  -3326.944423   -213.811066 -31892.013783       .040052                    
P 28 -12258.215525  20527.497505 -10767.042087     63.029662                    
V 28    968.381307 -14692.528293 -28020.030546       .029468                    
P 29  25732.171943  -4411.733170   4824.618906    234.975342                    
V 29  -4975.734811   4388.730364  31031.075599       .032040                    
P 30  15050.499639  -6817.194616  20436.739322     91.584952                    
V 30  -1272.673060  26787.992811   9693.141818      -.026516                    
P 31    725.717993 -17381.110122  20205.320172    133.029076                    
V 31  19598.110580  15911.157164  13318.646077       .056419                    
P 32  -9754.966952 -15961.455881  19282.300578   -318.647007                    
V 32   7495.095835 -22617.000081 -14716.087585      -.068040                    
EOF
